******** Week 590 almanac for PRN-02 ********
ID:                         02
Health:                     000
Eccentricity:               0.9845733643E-002
Time of Applicability(s):  147456.0000
Orbital Inclination(rad):   0.9390506744
Rate of Right Ascen(r/s):  -0.8014467312E-008
SQRT(A)  (m 1/2):           5153.624023
Right Ascen at Week(rad):   0.2000627756E+001
Argument of Perigee(rad):  -3.121058464
Mean Anom(rad):            -0.2393266559E+001
Af0(s):                     0.3080368042E-003
Af1(s/s):                   0.3637978807E-011
week:                        590

******** Week 590 almanac for PRN-03 ********
ID:                         03
Health:                     000
Eccentricity:               0.1386213303E-001
Time of Applicability(s):  147456.0000
Orbital Inclination(rad):   0.9278984070
Rate of Right Ascen(r/s):  -0.8200004231E-008
SQRT(A)  (m 1/2):           5153.567871
Right Ascen at Week(rad):   0.8449077606E+000
Argument of Perigee(rad):   1.065156817
Mean Anom(rad):            -0.2485171318E+001
Af0(s):                     0.6484985352E-003
Af1(s/s):                   0.3637978807E-011
week:                        590

******** Week 590 almanac for PRN-04 ********
ID:                         04
Health:                     000
Eccentricity:               0.9527206421E-002
Time of Applicability(s):  147456.0000
Orbital Inclination(rad):   0.9381694794
Rate of Right Ascen(r/s):  -0.8025381248E-008
SQRT(A)  (m 1/2):           5153.745117
Right Ascen at Week(rad):   0.2018243790E+001
Argument of Perigee(rad):   0.691093922
Mean Anom(rad):             0.5411809683E+000
Af0(s):                     0.2441406250E-003
Af1(s/s):                   0.1091393642E-010
week:                        590

******** Week 590 almanac for PRN-05 ********
ID:                         05
Health:                     000
Eccentricity:               0.2143383026E-002
Time of Applicability(s):  147456.0000
Orbital Inclination(rad):   0.9563198090
Rate of Right Ascen(r/s):  -0.8069036994E-008
SQRT(A)  (m 1/2):           5153.524902
Right Ascen at Week(rad):   0.3061405778E+001
Argument of Perigee(rad):   0.220933318
Mean Anom(rad):            -0.7137815952E+000
Af0(s):                    -0.8201599121E-004
Af1(s/s):                  -0.7275957614E-011
week:                        590

******** Week 590 almanac for PRN-06 ********
ID:                         06
Health:                     000
Eccentricity:               0.6225585938E-002
Time of Applicability(s):  147456.0000
Orbital Inclination(rad):   0.9350776672
Rate of Right Ascen(r/s):  -0.8116330719E-008
SQRT(A)  (m 1/2):           5153.596191
Right Ascen at Week(rad):   0.9171912670E+000
Argument of Perigee(rad):  -0.897649884
Mean Anom(rad):            -0.3528863192E+000
Af0(s):                     0.3929138184E-003
Af1(s/s):                  -0.1091393642E-010
week:                        590

******** Week 590 almanac for PRN-07 ********
ID:                         07
Health:                     000
Eccentricity:               0.4175662994E-002
Time of Applicability(s):  147456.0000
Orbital Inclination(rad):   0.9732837677
Rate of Right Ascen(r/s):  -0.7785274647E-008
SQRT(A)  (m 1/2):           5153.635742
Right Ascen at Week(rad):  -0.1118388891E+001
Argument of Perigee(rad):  -3.108297825
Mean Anom(rad):             0.2145335436E+001
Af0(s):                     0.0000000000E+000
Af1(s/s):                   0.0000000000E+000
week:                        590

******** Week 590 almanac for PRN-08 ********
ID:                         08
Health:                     000
Eccentricity:               0.1148509979E-001
Time of Applicability(s):  147456.0000
Orbital Inclination(rad):   0.9948539734
Rate of Right Ascen(r/s):  -0.7574271876E-008
SQRT(A)  (m 1/2):           5153.598145
Right Ascen at Week(rad):  -0.1046298504E+001
Argument of Perigee(rad):  -3.101114392
Mean Anom(rad):             0.1602262378E+001
Af0(s):                     0.6675720215E-005
Af1(s/s):                   0.0000000000E+000
week:                        590

******** Week 590 almanac for PRN-09 ********
ID:                         09
Health:                     000
Eccentricity:               0.1696825027E-001
Time of Applicability(s):  147456.0000
Orbital Inclination(rad):   0.9822711945
Rate of Right Ascen(r/s):  -0.7723429007E-008
SQRT(A)  (m 1/2):           5153.648438
Right Ascen at Week(rad):  -0.1148083091E+001
Argument of Perigee(rad):   1.554340839
Mean Anom(rad):             0.1486284733E+001
Af0(s):                     0.4863739014E-004
Af1(s/s):                   0.3637978807E-011
week:                        590

******** Week 590 almanac for PRN-10 ********
ID:                         10
Health:                     000
Eccentricity:               0.9794712067E-002
Time of Applicability(s):  147456.0000
Orbital Inclination(rad):   0.9513034821
Rate of Right Ascen(r/s):  -0.8123606676E-008
SQRT(A)  (m 1/2):           5153.494629
Right Ascen at Week(rad):   0.3086023688E+001
Argument of Perigee(rad):   0.676430821
Mean Anom(rad):            -0.5050894022E+000
Af0(s):                    -0.6008148193E-004
Af1(s/s):                   0.0000000000E+000
week:                        590

******** Week 590 almanac for PRN-11 ********
ID:                         11
Health:                     000
Eccentricity:               0.1152610779E-001
Time of Applicability(s):  147456.0000
Orbital Inclination(rad):   0.8877048492
Rate of Right Ascen(r/s):  -0.8491042536E-008
SQRT(A)  (m 1/2):           5153.417969
Right Ascen at Week(rad):   0.1771769524E+001
Argument of Perigee(rad):   0.894007802
Mean Anom(rad):             0.2139415264E+001
Af0(s):                    -0.1115798950E-003
Af1(s/s):                  -0.3637978807E-011
week:                        590

******** Week 590 almanac for PRN-12 ********
ID:                         12
Health:                     000
Eccentricity:               0.3385066986E-002
Time of Applicability(s):  147456.0000
Orbital Inclination(rad):   0.9735050201
Rate of Right Ascen(r/s):  -0.7865310181E-008
SQRT(A)  (m 1/2):           5153.494629
Right Ascen at Week(rad):  -0.6412267685E-001
Argument of Perigee(rad):  -0.326849103
Mean Anom(rad):             0.2258753061E+001
Af0(s):                    -0.4482269287E-004
Af1(s/s):                   0.3637978807E-011
week:                        590

******** Week 590 almanac for PRN-13 ********
ID:                         13
Health:                     000
Eccentricity:               0.4308700562E-002
Time of Applicability(s):  147456.0000
Orbital Inclination(rad):   0.9912109375
Rate of Right Ascen(r/s):  -0.7679773262E-008
SQRT(A)  (m 1/2):           5153.628906
Right Ascen at Week(rad):  -0.2096406102E+001
Argument of Perigee(rad):   1.797831059
Mean Anom(rad):            -0.1636223078E+001
Af0(s):                     0.2889633179E-003
Af1(s/s):                   0.0000000000E+000
week:                        590

******** Week 590 almanac for PRN-14 ********
ID:                         14
Health:                     000
Eccentricity:               0.5731582642E-002
Time of Applicability(s):  147456.0000
Orbital Inclination(rad):   0.9843635559
Rate of Right Ascen(r/s):  -0.7741618901E-008
SQRT(A)  (m 1/2):           5153.563965
Right Ascen at Week(rad):  -0.2119521737E+001
Argument of Perigee(rad):  -2.081361771
Mean Anom(rad):            -0.1683924794E+001
Af0(s):                     0.1153945923E-003
Af1(s/s):                   0.3637978807E-011
week:                        590

******** Week 590 almanac for PRN-15 ********
ID:                         15
Health:                     000
Eccentricity:               0.3157615662E-002
Time of Applicability(s):  147456.0000
Orbital Inclination(rad):   0.9517650604
Rate of Right Ascen(r/s):  -0.8076312952E-008
SQRT(A)  (m 1/2):           5153.815430
Right Ascen at Week(rad):  -0.2190010786E+001
Argument of Perigee(rad):  -0.173419595
Mean Anom(rad):            -0.1953002810E+001
Af0(s):                    -0.1726150513E-003
Af1(s/s):                   0.3637978807E-011
week:                        590

******** Week 590 almanac for PRN-16 ********
ID:                         16
Health:                     000
Eccentricity:               0.5938053131E-002
Time of Applicability(s):  147456.0000
Orbital Inclination(rad):   0.9746131897
Rate of Right Ascen(r/s):  -0.7854396245E-008
SQRT(A)  (m 1/2):           5153.659668
Right Ascen at Week(rad):  -0.4646658897E-001
Argument of Perigee(rad):  -0.166288257
Mean Anom(rad):            -0.1260399818E+000
Af0(s):                    -0.1344680786E-003
Af1(s/s):                  -0.3637978807E-011
week:                        590

******** Week 590 almanac for PRN-17 ********
ID:                         17
Health:                     000
Eccentricity:               0.5831241608E-002
Time of Applicability(s):  147456.0000
Orbital Inclination(rad):   0.9605026245
Rate of Right Ascen(r/s):  -0.7836206350E-008
SQRT(A)  (m 1/2):           5153.638672
Right Ascen at Week(rad):   0.9961298704E+000
Argument of Perigee(rad):  -2.499771476
Mean Anom(rad):            -0.1165531397E+001
Af0(s):                     0.1792907715E-003
Af1(s/s):                   0.0000000000E+000
week:                        590

